{"fetched_at":"2026-03-29T16:36:15Z","count":15609,"tles":[{"name":"STARLINK-32701","line1":"1 62510U 25003Z   26087.73182170  .00022139  00000+0  81063-3 0  9993","line2":"2 62510  42.9967 181.4404 0000937 253.7203 106.3546 15.27619371 69468","category":"Starlink"}]}