{
  "norad_id": 62510,
  "name": "STARLINK-32701",
  "history": [
    {
      "epoch": "2026-03-28T17:33:49.394880",
      "apogee_km": 483.5746386105102,
      "perigee_km": 482.2877766574866,
      "latitude_deg": -35.06628006084264,
      "longitude_deg": 141.25488320016302,
      "semi_major_axis_km": 6861.068207633998,
      "eccentricity": 9.378e-05,
      "inclination_deg": 42.9967,
      "raan_deg": 181.4404,
      "arg_perigee_deg": 253.7203,
      "mean_anomaly_deg": 106.3546,
      "mean_motion_rev_day": 15.27619371
    }
  ]
}